ONEWEB-0233             
1 48795U 21045AE  25025.41315802 -.00000037  00000+0 -13157-3 0  9994
2 48795  87.9092   0.3499 0001866  93.2578 266.8766 13.15549339177537
ONEWEB-0190             
1 48796U 21045AF  25025.47574786  .00000035  00000+0  58937-4 0  9991
2 48796  87.9093   0.2997 0001793 114.3493 245.7824 13.15548570177617
ONEWEB-0236             
1 48797U 21045AG  25025.41712024 -.00000056  00000+0 -18154-3 0  9996
2 48797  87.9097   0.3134 0001893  88.0663 272.0684 13.15548137177495
ONEWEB-0248             
1 48798U 21045AH  25025.42979671  .00000097  00000+0  22469-3 0  9998
2 48798  87.9088   0.2823 0002211 102.7044 257.4334 13.15549011177651
ONEWEB-0225             
1 48799U 21045AJ  25025.45196878  .00000208  00000+0  51861-3 0  9994
2 48799  87.9093   0.3005 0001794  97.2670 262.8664 13.15550977177669
ONEWEB-0215             
1 48800U 21045AK  25025.42186631 -.00000012  00000+0 -67198-4 0  9996
2 48800  87.9086   0.2676 0002075 106.4554 253.6804 13.15548876177539
ONEWEB-0216             
1 48801U 21045AL  25025.35532350  .00000080  00000+0  17807-3 0  9996
2 48801  87.9084   0.3245 0001563  84.9264 275.2045 13.15548349177532
ONEWEB-0239             
1 48802U 21045AM  25025.43613756  .00000154  00000+0  37384-3 0  9990
2 48802  87.9094   0.3039 0002306 105.7637 254.3748 13.15548158177588
